LANDSAT 9               
1 49260U 21088A   24021.18854989  .00000799  00000+0  18736-3 0  9993
2 49260  98.2063  93.1951 0001039  89.3999 270.7319 14.57123885123132
